ADRAS-J                 
1 58992U 24034A   24198.64339262  .00005462  00000+0  50505-3 0  9999
2 58992  98.2129 173.0079 0042466 313.4674  46.3016 14.94331734 22264
